{"fetched_at":"2026-03-29T16:36:15Z","count":15609,"tles":[{"name":"STARLINK-32137","line1":"1 60155U 24120W   26087.67959280 -.00000152  00000+0  69772-5 0  9999","line2":"2 60155  53.1601 231.7110 0000644  52.1319 307.9740 15.30193659 99285","category":"Starlink"}]}