{
  "norad_id": 60155,
  "name": "STARLINK-32137",
  "history": [
    {
      "epoch": "2026-03-28T16:18:36.817920",
      "apogee_km": 475.6756337951383,
      "perigee_km": 474.7923713403261,
      "latitude_deg": -18.247348817331062,
      "longitude_deg": -99.25909120007418,
      "semi_major_axis_km": 6853.371002567732,
      "eccentricity": 6.444e-05,
      "inclination_deg": 53.1601,
      "raan_deg": 231.711,
      "arg_perigee_deg": 52.1319,
      "mean_anomaly_deg": 307.974,
      "mean_motion_rev_day": 15.30193659
    }
  ]
}